STARLINK-37537          
1 69420U 26126A   26187.80364718  .00105144  00000+0  69638-3 0  9998
2 69420  97.2847  48.7412 0001053  65.0087 295.1287 15.75215958  5839
STARLINK-37585          
1 69421U 26126B   26187.60247704  .00045913  00000+0  30677-3 0  9990
2 69421  97.2843  48.5569 0001096  34.1466 325.9869 15.75210253  5800
STARLINK-37573          
1 69422U 26126C   26187.61624074  .00085601  00000+0  56868-3 0  9999
2 69422  97.2844  48.5378 0001477  14.9365 345.1944 15.75204339  5803
STARLINK-37820          
1 69423U 26126D   26188.07576801  .00242578  00000+0  15752-2 0  9999
2 69423  97.2840  49.1390 0001569  63.7456 296.3970 15.75282259  5887
STARLINK-37822          
1 69424U 26126E   26187.58377205  .00105300  00000+0  69599-3 0  9992
2 69424  97.2843  48.5834 0000732  11.9138 348.2144 15.75262950  5808
STARLINK-37836          
1 69425U 26126F   26187.56471903  .00182775  00000+0  11950-2 0  9999
2 69425  97.2846  48.6101 0001165  90.0208 270.1191 15.75291307  5800
STARLINK-37850          
1 69426U 26126G   26188.07788505  .00206614  00000+0  13482-2 0  9997
2 69426  97.2839  49.1362 0001542  66.4269 293.7158 15.75268858  5934
STARLINK-37823          
1 69427U 26126H   26187.59012808  .00138240  00000+0  91134-3 0  9990
2 69427  97.2845  48.5737 0000765  20.4419 339.6876 15.75226330  5806
STARLINK-37834          
1 69428U 26126J   26187.59857262  .00023655  00000+0  15907-3 0  9999
2 69428  97.2840  48.5625 0002527 328.4393  31.6720 15.75180434  5809
STARLINK-37857          
1 69429U 26126K   26187.90494287  .00194244  00000+0  12698-2 0  9995
2 69429  97.2843  48.9110 0000842  56.3017 303.8328 15.75262376  5853
STARLINK-37866          
1 69430U 26126L   26188.07082802  .00195976  00000+0  12811-2 0  9992
2 69430  97.2844  49.1461 0001782  66.7497 293.3956 15.75257959  5939
STARLINK-37555          
1 69431U 26126M   26188.08352938  .00160737  00000+0  10556-2 0  9995
2 69431  97.2837  49.1282 0001227  42.4983 317.6377 15.75251108  5935
STARLINK-37870          
1 69432U 26126N   26187.57177769  .00198830  00000+0  12973-2 0  9996
2 69432  97.2851  48.6005 0000749  72.0947 288.0400 15.75293109  5807
STARLINK-37872          
1 69433U 26126P   26187.55660169  .00213716  00000+0  13914-2 0  9993
2 69433  97.2843  48.6214 0001215 116.2555 243.8835 15.75302301  5802
STARLINK-37815          
1 69434U 26126Q   26187.60636022  .00116149  00000+0  76868-3 0  9991
2 69434  97.2839  48.5515 0001575   9.5119 350.6176 15.75200661  5801
STARLINK-37801          
1 69435U 26126R   26187.84635696  .00157919  00000+0  10382-2 0  9992
2 69435  97.2847  48.8402 0000798  33.5651 326.5665 15.75233838  5899
STARLINK-37800          
1 69436U 26126S   26187.59436119  .00059761  00000+0  39826-3 0  9995
2 69436  97.2839  48.5700 0002084 355.0893   5.0352 15.75216062  5802
STARLINK-37792          
1 69437U 26126T   26188.08336806  .00020959  00000+0  14101-3 0  9999
2 69437  97.2844  49.1886 0001750 108.1208  31.0855 15.75193421  5942
STARLINK-37783          
1 69438U 26126U   26187.55872122  .00142602  00000+0  94016-3 0  9990
2 69438  97.2842  48.6188 0001519 359.3329   0.7934 15.75211979  5857
STARLINK-37771          
1 69439U 26126V   26187.61059319  .00056972  00000+0  37995-3 0  9990
2 69439  97.2846  48.5457 0001629   6.7840 353.3446 15.75210105  5803
STARLINK-37747          
1 69440U 26126W   26188.08776376  .00144937  00000+0  95410-3 0  9998
2 69440  97.2840  49.1222 0000788  79.4980 280.6374 15.75240955  5889
STARLINK-37629          
1 69443U 26127A   26187.53034644  .00131869  00000+0  84716-3 0  9993
2 69443  53.1590 166.2800 0001223 164.3871 195.7187 15.75344443  4453
STARLINK-37509          
1 69444U 26127B   26187.97026470  .00129430  00000+0  83473-3 0  9990
2 69444  53.1581 164.0440 0001255  78.5090 281.6071 15.75263929  4528
STARLINK-37641          
1 69445U 26127C   26187.32186456  .00246745  00000+0  15575-2 0  9997
2 69445  53.1572 167.1036 0001263  81.5254 278.5909 15.75382048  4427
STARLINK-37522          
1 69446U 26127D   26187.52581317  .00172506  00000+0  11002-2 0  9999
2 69446  53.1592 166.2501 0000653 127.0600 233.0480 15.75373230  4456
STARLINK-37640          
1 69447U 26127E   26187.37169172  .00222387  00000+0  14086-2 0  9992
2 69447  53.1594 166.6996 0001447 109.1662 250.9515 15.75377234  4435
STARLINK-37572          
1 69448U 26127F   26187.45362654  .00261718  00000+0  16477-2 0  9999
2 69448  53.1594 166.5061 0001414  40.3711 319.7414 15.75398099  4448
STARLINK-37643          
1 69449U 26127G   26188.00003471  .00004583  00000+0  34048-4 0  9992
2 69449  53.1590 163.8437 0001063  92.1043 102.6605 15.75241969  5833
STARLINK-37601          
1 69450U 26127H   26187.96539794  .00238111  00000+0  15091-2 0  9991
2 69450  53.1588 164.0113 0001602 126.5168 233.6000 15.75316322  4520
STARLINK-37578          
1 69451U 26127J   26187.57110234  .00122635  00000+0  79007-3 0  9994
2 69451  53.1564 165.8110 0000946 136.4384 223.6711 15.75313293  4466
